start=new Date('2022-07-03T00:00:00.000Z').valueOf();
sats=[{"OBJECT_NAME":"STARLINK-1480","NORAD_CAT_ID":"45741","RCS_SIZE":"LARGE","FILE":"3506647","REV_AT_EPOCH":"11329","RA_OF_ASC_NODE":"160.1252","CENTER_NAME":"EARTH","ELEMENT_SET_NO":"999","ECCENTRICITY":"0.00019940","BSTAR":"-0.00007032300000","MEAN_ANOMALY":"293.3123","TLE_LINE1":"1 45741U 20038M   22183.45157183 -.00001329  00000-0 -70323-4 0  9990","ARG_OF_PERICENTER":"66.8076","MEAN_MOTION":"15.06390848","LAUNCH_DATE":"2020-06-13","MEAN_ELEMENT_THEORY":"SGP4","MEAN_MOTION_DDOT":"0.0000000000000","APOAPSIS":"548.623","CLASSIFICATION_TYPE":"U","REF_FRAME":"TEME","SEMIMAJOR_AXIS":"6925.377","DECAY_DATE":null,"INCLINATION":"53.0530","MEAN_MOTION_DOT":"-0.00001329","EPOCH":"2022-07-02T10:50:15.806112","TLE_LINE2":"2 45741  53.0530 160.1252 0001994  66.8076 293.3123 15.06390848113295","PERIAPSIS":"545.861","OBJECT_TYPE":"PAYLOAD","GP_ID":"207265483","COUNTRY_CODE":"US","PERIOD":"95.593","SITE":"AFETR","TIME_SYSTEM":"UTC","EPHEMERIS_TYPE":"0","OBJECT_ID":"2020-038M"},{"DECAY_DATE":null,"INCLINATION":"53.0540","REF_FRAME":"TEME","CLASSIFICATION_TYPE":"U","SEMIMAJOR_AXIS":"6925.379","OBJECT_TYPE":"PAYLOAD","MEAN_MOTION_DOT":"-0.00001460","EPOCH":"2022-07-02T10:39:39.196224","TLE_LINE2":"2 45742  53.0540 160.1424 0002037  61.5917 298.5277 15.06390165113270","PERIAPSIS":"545.833","COUNTRY_CODE":"US","GP_ID":"207265234","PERIOD":"95.593","EPHEMERIS_TYPE":"0","OBJECT_ID":"2020-038N","SITE":"AFETR","TIME_SYSTEM":"UTC","FILE":"3506647","RA_OF_ASC_NODE":"160.1424","REV_AT_EPOCH":"11327","ELEMENT_SET_NO":"999","CENTER_NAME":"EARTH","ECCENTRICITY":"0.00020370","NORAD_CAT_ID":"45742","OBJECT_NAME":"STARLINK-1481","RCS_SIZE":"LARGE","BSTAR":"-0.00007911800000","MEAN_ANOMALY":"298.5277","TLE_LINE1":"1 45742U 20038N   22183.44420366 -.00001460  00000-0 -79118-4 0  9993","ARG_OF_PERICENTER":"61.5917","MEAN_MOTION_DDOT":"0.0000000000000","APOAPSIS":"548.654","MEAN_MOTION":"15.06390165","LAUNCH_DATE":"2020-06-13","MEAN_ELEMENT_THEORY":"SGP4"},{"REV_AT_EPOCH":"11326","FILE":"3506647","RA_OF_ASC_NODE":"160.5959","ECCENTRICITY":"0.00027380","ELEMENT_SET_NO":"999","CENTER_NAME":"EARTH","OBJECT_NAME":"STARLINK-1483","NORAD_CAT_ID":"45743","RCS_SIZE":"LARGE","BSTAR":"-0.00003752600000","MEAN_ANOMALY":"313.7920","TLE_LINE1":"1 45743U 20038P   22183.32897525 -.00000841  00000-0 -37526-4 0  9995","ARG_OF_PERICENTER":"46.3296","MEAN_MOTION_DDOT":"0.0000000000000","APOAPSIS":"549.136","MEAN_MOTION":"15.06391539","LAUNCH_DATE":"2020-06-13","MEAN_ELEMENT_THEORY":"SGP4","DECAY_DATE":null,"INCLINATION":"53.0587","REF_FRAME":"TEME","CLASSIFICATION_TYPE":"U","SEMIMAJOR_AXIS":"6925.374","OBJECT_TYPE":"PAYLOAD","EPOCH":"2022-07-02T07:53:43.461600","MEAN_MOTION_DOT":"-0.00000841","TLE_LINE2":"2 45743  53.0587 160.5959 0002738  46.3296 313.7920 15.06391539113268","PERIAPSIS":"545.343","COUNTRY_CODE":"US","GP_ID":"207263982","PERIOD":"95.593","EPHEMERIS_TYPE":"0","OBJECT_ID":"2020-038P","SITE":"AFETR","TIME_SYSTEM":"UTC"},{"ARG_OF_PERICENTER":"63.4912","TLE_LINE1":"1 45744U 20038Q   22183.63218403  .00001053  00000-0  89597-4 0  9991","MEAN_ANOMALY":"296.6298","MEAN_ELEMENT_THEORY":"SGP4","LAUNCH_DATE":"2020-06-13","MEAN_MOTION":"15.06398719","APOAPSIS":"548.711","MEAN_MOTION_DDOT":"0.0000000000000","RCS_SIZE":"LARGE","OBJECT_NAME":"STARLINK-1500","NORAD_CAT_ID":"45744","ELEMENT_SET_NO":"999","ECCENTRICITY":"0.00021560","CENTER_NAME":"EARTH","FILE":"3506682","REV_AT_EPOCH":"11423","RA_OF_ASC_NODE":"159.3010","BSTAR":"0.00008959700000","PERIOD":"95.592","COUNTRY_CODE":"US","GP_ID":"207271351","TIME_SYSTEM":"UTC","SITE":"AFETR","OBJECT_ID":"2020-038Q","EPHEMERIS_TYPE":"0","SEMIMAJOR_AXIS":"6925.352","REF_FRAME":"TEME","CLASSIFICATION_TYPE":"U","INCLINATION":"53.0550","DECAY_DATE":null,"PERIAPSIS":"545.724","TLE_LINE2":"2 45744  53.0550 159.3010 0002156  63.4912 296.6298 15.06398719114234","MEAN_MOTION_DOT":"0.00001053","EPOCH":"2022-07-02T15:10:20.700192","OBJECT_TYPE":"PAYLOAD"},{"MEAN_MOTION":"15.06399599","MEAN_ELEMENT_THEORY":"SGP4","LAUNCH_DATE":"2020-06-13","APOAPSIS":"548.558","MEAN_MOTION_DDOT":"0.0000000000000","TLE_LINE1":"1 45745U 20038R   22183.35573036  .00000565  00000-0  56819-4 0  9995","MEAN_ANOMALY":"290.5018","ARG_OF_PERICENTER":"69.6179","BSTAR":"0.00005681900000","NORAD_CAT_ID":"45745","OBJECT_NAME":"STARLINK-1503","RCS_SIZE":"LARGE","FILE":"3506647","RA_OF_ASC_NODE":"160.5396","REV_AT_EPOCH":"11326","ECCENTRICITY":"0.00019390","ELEMENT_SET_NO":"999","CENTER_NAME":"EARTH","SITE":"AFETR","TIME_SYSTEM":"UTC","OBJECT_ID":"2020-038R","EPHEMERIS_TYPE":"0","COUNTRY_CODE":"US","GP_ID":"207264984","PERIOD":"95.592","TLE_LINE2":"2 45745  53.0546 160.5396 0001939  69.6179 290.5018 15.06399599113264","EPOCH":"2022-07-02T08:32:15.103104","MEAN_MOTION_DOT":"0.00000565","PERIAPSIS":"545.872","OBJECT_TYPE":"PAYLOAD","SEMIMAJOR_AXIS":"6925.350","REF_FRAME":"TEME","CLASSIFICATION_TYPE":"U","DECAY_DATE":null,"INCLINATION":"53.0546"},{"TLE_LINE1":"1 45746U 20038S   22183.30411584  .00000751  00000-0  69349-4 0  9999","MEAN_ANOMALY":"299.0453","ARG_OF_PERICENTER":"61.0768","MEAN_MOTION_DDOT":"0.0000000000000","APOAPSIS":"548.805","MEAN_MOTION":"15.06403805","MEAN_ELEMENT_THEORY":"SGP4","LAUNCH_DATE":"2020-06-13","FILE":"3506647","REV_AT_EPOCH":"11325","RA_OF_ASC_NODE":"160.7787","ELEMENT_SET_NO":"999","ECCENTRICITY":"0.00023150","CENTER_NAME":"EARTH","NORAD_CAT_ID":"45746","OBJECT_NAME":"STARLINK-1504","RCS_SIZE":"LARGE","BSTAR":"0.00006934900000","GP_ID":"207265734","COUNTRY_CODE":"US","PERIOD":"95.592","OBJECT_ID":"2020-038S","EPHEMERIS_TYPE":"0","SITE":"AFETR","TIME_SYSTEM":"UTC","DECAY_DATE":null,"INCLINATION":"53.0554","SEMIMAJOR_AXIS":"6925.337","REF_FRAME":"TEME","CLASSIFICATION_TYPE":"U","OBJECT_TYPE":"PAYLOAD","TLE_LINE2":"2 45746  53.0554 160.7787 0002315  61.0768 299.0453 15.06403805113251","MEAN_MOTION_DOT":"0.00000751","EPOCH":"2022-07-02T07:17:55.608576","PERIAPSIS":"545.599"},{"NORAD_CAT_ID":"45747","OBJECT_NAME":"STARLINK-1506","RCS_SIZE":"LARGE","REV_AT_EPOCH":"11325","FILE":"3506647","RA_OF_ASC_NODE":"161.0634","CENTER_NAME":"EARTH","ELEMENT_SET_NO":"999","ECCENTRICITY":"0.00020460","BSTAR":"0.00007139100000","MEAN_ANOMALY":"305.0480","TLE_LINE1":"1 45747U 20038T   22183.24147280  .00000782  00000-0  71391-4 0  9996","ARG_OF_PERICENTER":"55.0701","MEAN_MOTION":"15.06393106","MEAN_ELEMENT_THEORY":"SGP4","LAUNCH_DATE":"2020-06-13","APOAPSIS":"548.652","MEAN_MOTION_DDOT":"0.0000000000000","REF_FRAME":"TEME","CLASSIFICATION_TYPE":"U","SEMIMAJOR_AXIS":"6925.370","DECAY_DATE":null,"INCLINATION":"53.0545","MEAN_MOTION_DOT":"0.00000782","EPOCH":"2022-07-02T05:47:43.249920","TLE_LINE2":"2 45747  53.0545 161.0634 0002046  55.0701 305.0480 15.06393106113258","PERIAPSIS":"545.818","OBJECT_TYPE":"PAYLOAD","COUNTRY_CODE":"US","GP_ID":"207264482","PERIOD":"95.593","SITE":"AFETR","TIME_SYSTEM":"UTC","OBJECT_ID":"2020-038T","EPHEMERIS_TYPE":"0"},{"BSTAR":"-0.00003439100000","ECCENTRICITY":"0.00018690","ELEMENT_SET_NO":"999","CENTER_NAME":"EARTH","FILE":"3506647","RA_OF_ASC_NODE":"160.2107","REV_AT_EPOCH":"11327","RCS_SIZE":"LARGE","NORAD_CAT_ID":"45748","OBJECT_NAME":"STARLINK-1507","MEAN_MOTION_DDOT":"0.0000000000000","APOAPSIS":"548.525","LAUNCH_DATE":"2020-06-13","MEAN_ELEMENT_THEORY":"SGP4","MEAN_MOTION":"15.06394272","ARG_OF_PERICENTER":"65.5601","MEAN_ANOMALY":"294.5583","TLE_LINE1":"1 45748U 20038U   22183.42850289 -.00000794  00000-0 -34391-4 0  9991","OBJECT_TYPE":"PAYLOAD","PERIAPSIS":"545.937","MEAN_MOTION_DOT":"-0.00000794","EPOCH":"2022-07-02T10:17:02.649696","TLE_LINE2":"2 45748  53.0535 160.2107 0001869  65.5601 294.5583 15.06394272113274","INCLINATION":"53.0535","DECAY_DATE":null,"REF_FRAME":"TEME","CLASSIFICATION_TYPE":"U","SEMIMAJOR_AXIS":"6925.366","EPHEMERIS_TYPE":"0","OBJECT_ID":"2020-038U","TIME_SYSTEM":"UTC","SITE":"AFETR","PERIOD":"95.593","GP_ID":"207264233","COUNTRY_CODE":"US"},{"FILE":"3506647","RA_OF_ASC_NODE":"140.9873","REV_AT_EPOCH":"11354","ELEMENT_SET_NO":"999","ECCENTRICITY":"0.00021270","CENTER_NAME":"EARTH","NORAD_CAT_ID":"45750","OBJECT_NAME":"STARLINK-1391","RCS_SIZE":"LARGE","BSTAR":"0.00010009000000","MEAN_ANOMALY":"300.2965","TLE_LINE1":"1 45750U 20038W   22183.25804484  .00001209  00000-0  10009-3 0  9990","ARG_OF_PERICENTER":"59.8234","APOAPSIS":"548.684","MEAN_MOTION_DDOT":"0.0000000000000","MEAN_MOTION":"15.06400688","LAUNCH_DATE":"2020-06-13","MEAN_ELEMENT_THEORY":"SGP4","DECAY_DATE":null,"INCLINATION":"53.0543","REF_FRAME":"TEME","CLASSIFICATION_TYPE":"U","SEMIMAJOR_AXIS":"6925.346","OBJECT_TYPE":"PAYLOAD","MEAN_MOTION_DOT":"0.00001209","EPOCH":"2022-07-02T06:11:35.074176","TLE_LINE2":"2 45750  53.0543 140.9873 0002127  59.8234 300.2965 15.06400688113545","PERIAPSIS":"545.738","GP_ID":"207265484","COUNTRY_CODE":"US","PERIOD":"95.592","EPHEMERIS_TYPE":"0","OBJECT_ID":"2020-038W","SITE":"AFETR","TIME_SYSTEM":"UTC"},{"MEAN_MOTION":"15.06395571","LAUNCH_DATE":"2020-06-13","MEAN_ELEMENT_THEORY":"SGP4","APOAPSIS":"548.635","MEAN_MOTION_DDOT":"0.0000000000000","MEAN_ANOMALY":"298.7019","TLE_LINE1":"1 45751U 20038X   22183.18801601 -.00000526  00000-0 -16389-4 0  9992","ARG_OF_PERICENTER":"61.4175","BSTAR":"-0.00001638900000","NORAD_CAT_ID":"45751","OBJECT_NAME":"STARLINK-1464","RCS_SIZE":"LARGE","FILE":"3506647","RA_OF_ASC_NODE":"141.3127","REV_AT_EPOCH":"11353","ELEMENT_SET_NO":"999","CENTER_NAME":"EARTH","ECCENTRICITY":"0.00020330","SITE":"AFETR","TIME_SYSTEM":"UTC","EPHEMERIS_TYPE":"0","OBJECT_ID":"2020-038X","GP_ID":"207265235","COUNTRY_CODE":"US","PERIOD":"95.592","EPOCH":"2022-07-02T04:30:44.583264","MEAN_MOTION_DOT":"-0.00000526","TLE_LINE2":"2 45751  53.0554 141.3127 0002033  61.4175 298.7019 15.06395571113538","PERIAPSIS":"545.819","OBJECT_TYPE":"PAYLOAD","CLASSIFICATION_TYPE":"U","REF_FRAME":"TEME","SEMIMAJOR_AXIS":"6925.362","DECAY_DATE":null,"INCLINATION":"53.0554"}];
